{"type":"FeatureCollection","features":[{"type":"Feature","name":"ShapeMeta","geometry":{"type":"LineString","coordinates":[[23.63093,46.76816],[23.63095,46.7681],[23.63116,46.76785]]},"properties":{"name":"Strada Alexandru Vaida Voevod","highway":"residential","custom-speed":"50","maxspeed":"RO:urban","number-of-cars":"0","profile":"car","distance":"38.12585","time":"2.745061"}},{"type":"Feature","name":"ShapeMeta","geometry":{"type":"LineString","coordinates":[[23.63116,46.76785],[23.63165,46.76772],[23.63318,46.76743],[23.634,46.76732],[23.6342,46.76734]]},"properties":{"name":"Strada Soporului","highway":"residential","custom-speed":"50","maxspeed":"RO:urban","number-of-cars":"0","profile":"car","distance":"278.4258","time":"20.04666"}},{"type":"Feature","name":"ShapeMeta","geometry":{"type":"LineString","coordinates":[[23.6342,46.76734],[23.63436,46.76672],[23.63446,46.76616]]},"properties":{"name":"Strada Georg Friedrich Hegel","highway":"residential","custom-speed":"50","maxspeed":"RO:urban","number-of-cars":"0","profile":"car","distance":"410.9258","time":"29.58666"}},{"type":"Feature","name":"ShapeMeta","geometry":{"type":"LineString","coordinates":[[23.63446,46.76616],[23.6346,46.7653],[23.63465,46.76513],[23.63466,46.76497],[23.63461,46.76477],[23.63453,46.76468]]},"properties":{"name":"Strada Georg Friedrich Hegal","highway":"residential","custom-speed":"50","maxspeed":"RO:urban","number-of-cars":"0","profile":"car","distance":"578.8258","time":"41.67546"}},{"type":"Feature","name":"ShapeMeta","geometry":{"type":"LineString","coordinates":[[23.63453,46.76468],[23.63438,46.76476]]},"properties":{"bridge":"yes","highway":"residential","custom-speed":"50","maxspeed":"RO:urban","number-of-cars":"0","profile":"car","distance":"593.1258","time":"42.70506"}},{"type":"Feature","name":"ShapeMeta","geometry":{"type":"LineString","coordinates":[[23.63438,46.76476],[23.63396,46.765]]},"properties":{"name":"Strada Alexandru Vaida Voevod","highway":"residential","custom-speed":"50","maxspeed":"RO:urban","number-of-cars":"0","profile":"car","distance":"634.9258","time":"45.71466"}},{"type":"Feature","name":"ShapeMeta","geometry":{"type":"LineString","coordinates":[[23.63396,46.765],[23.63353,46.76521]]},"properties":{"name":"Strada Alexandru Vaida Voevod","highway":"residential","custom-speed":"50","maxspeed":"RO:urban","number-of-cars":"0","profile":"car","distance":"675.2258","time":"48.61626"}},{"type":"Feature","name":"ShapeMeta","geometry":{"type":"LineString","coordinates":[[23.63353,46.76521],[23.63315,46.76541]]},"properties":{"name":"Strada Alexandru Vaida Voevod","highway":"residential","custom-speed":"50","maxspeed":"RO:urban","number-of-cars":"0","profile":"car","distance":"711.7258","time":"51.24426"}},{"type":"Feature","name":"ShapeMeta","geometry":{"type":"LineString","coordinates":[[23.63315,46.76541],[23.63268,46.76565]]},"properties":{"name":"Strada Alexandru Vaida Voevod","highway":"residential","custom-speed":"50","maxspeed":"RO:urban","number-of-cars":"0","profile":"car","distance":"755.7258","time":"54.41226"}},{"type":"Feature","name":"ShapeMeta","geometry":{"type":"LineString","coordinates":[[23.63268,46.76565],[23.63207,46.76597]]},"properties":{"name":"Strada Alexandru Vaida Voevod","highway":"residential","custom-speed":"50","maxspeed":"RO:urban","number-of-cars":"0","profile":"car","distance":"814.7258","time":"58.66026"}},{"type":"Feature","name":"ShapeMeta","geometry":{"type":"LineString","coordinates":[[23.63207,46.76597],[23.63041,46.76543],[23.63032,46.76541],[23.63025,46.76543],[23.63013,46.76547]]},"properties":{"name":"Strada Octavian Fodor","highway":"residential","custom-speed":"50","maxspeed":"RO:urban","number-of-cars":"0","profile":"car","distance":"977.5258","time":"70.38186"}},{"type":"Feature","name":"ShapeMeta","geometry":{"type":"LineString","coordinates":[[23.63013,46.76547],[23.63021,46.76553]]},"properties":{"name":"Aleea Detunata","highway":"residential","custom-speed":"50","maxspeed":"RO:urban","number-of-cars":"0","profile":"car","distance":"986.5258","time":"71.02986"}},{"type":"Feature","name":"ShapeMeta","geometry":{"type":"LineString","coordinates":[[23.63021,46.76553],[23.63059,46.76566],[23.63071,46.76573],[23.63088,46.76587],[23.63097,46.76609],[23.63098,46.76648],[23.6309,46.76676],[23.63063,46.76717],[23.63032,46.76745],[23.62993,46.76767],[23.62965,46.76778]]},"properties":{"name":"Aleea Detunata","highway":"residential","custom-speed":"50","maxspeed":"RO:urban","number-of-cars":"0","profile":"car","distance":"1304.026","time":"93.88986"}},{"type":"Feature","name":"ShapeMeta","geometry":{"type":"LineString","coordinates":[[23.62965,46.76778],[23.62962,46.76809]]},"properties":{"name":"Aleea Detunata","highway":"residential","custom-speed":"50","maxspeed":"RO:urban","number-of-cars":"0","profile":"car","distance":"1338.826","time":"96.39546"}},{"type":"Feature","name":"ShapeMeta","geometry":{"type":"LineString","coordinates":[[23.62962,46.76809],[23.62935,46.76798]]},"properties":{"name":"Strada Unirii","highway":"residential","custom-speed":"50","maxspeed":"RO:urban","number-of-cars":"0","profile":"car","distance":"1363.026","time":"98.13786"}},{"type":"Feature","name":"ShapeMeta","geometry":{"type":"LineString","coordinates":[[23.62935,46.76798],[23.62916,46.76793],[23.62897,46.76791],[23.62889,46.76791]]},"properties":{"name":"Strada Unirii","highway":"residential","custom-speed":"50","maxspeed":"RO:urban","number-of-cars":"0","profile":"car","distance":"1399.326","time":"100.7515"}},{"type":"Feature","name":"ShapeMeta","geometry":{"type":"LineString","coordinates":[[23.62889,46.76791],[23.62864,46.76791],[23.62848,46.76791]]},"properties":{"name":"Strada Unirii","highway":"residential","custom-speed":"50","maxspeed":"RO:urban","number-of-cars":"0","profile":"car","distance":"1430.126","time":"102.9691"}},{"type":"Feature","name":"ShapeMeta","geometry":{"type":"LineString","coordinates":[[23.62848,46.76791],[23.62845,46.7679]]},"properties":{"name":"Strada Unirii","highway":"residential","custom-speed":"50","maxspeed":"RO:urban","number-of-cars":"0","profile":"car","distance":"1432.826","time":"103.1635"}},{"type":"Feature","name":"ShapeMeta","geometry":{"type":"LineString","coordinates":[[23.62845,46.7679],[23.62787,46.76788]]},"properties":{"name":"Strada Unirii","highway":"residential","custom-speed":"50","maxspeed":"RO:urban","number-of-cars":"0","profile":"car","distance":"1476.826","time":"106.3315"}},{"type":"Feature","name":"ShapeMeta","geometry":{"type":"LineString","coordinates":[[23.62787,46.76788],[23.6278,46.76788],[23.62664,46.76785],[23.62658,46.76785]]},"properties":{"name":"Strada Unirii","highway":"residential","custom-speed":"50","maxspeed":"RO:urban","number-of-cars":"0","profile":"car","distance":"1574.926","time":"113.3947"}},{"type":"Feature","name":"ShapeMeta","geometry":{"type":"LineString","coordinates":[[23.62658,46.76785],[23.62595,46.76783]]},"properties":{"name":"Strada Unirii","highway":"residential","custom-speed":"50","maxspeed":"RO:urban","number-of-cars":"0","profile":"car","distance":"1622.826","time":"116.8435"}},{"type":"Feature","name":"ShapeMeta","geometry":{"type":"LineString","coordinates":[[23.62595,46.76783],[23.62551,46.76782],[23.62465,46.76789]]},"properties":{"name":"Strada Unirii","highway":"residential","custom-speed":"50","maxspeed":"RO:urban","number-of-cars":"0","profile":"car","distance":"1722.726","time":"124.0363"}},{"type":"Feature","name":"ShapeMeta","geometry":{"type":"LineString","coordinates":[[23.62465,46.76789],[23.62452,46.76792]]},"properties":{"name":"Strada Unirii","highway":"residential","custom-speed":"50","maxspeed":"RO:urban","number-of-cars":"0","profile":"car","distance":"1733.426","time":"124.8067"}},{"type":"Feature","name":"ShapeMeta","geometry":{"type":"LineString","coordinates":[[23.62452,46.76792],[23.6239,46.76809],[23.62362,46.76816],[23.62303,46.76831]]},"properties":{"name":"Strada Unirii","highway":"residential","custom-speed":"50","maxspeed":"RO:urban","number-of-cars":"0","profile":"car","distance":"1854.426","time":"133.5187"}},{"type":"Feature","name":"ShapeMeta","geometry":{"type":"LineString","coordinates":[[23.62303,46.76831],[23.62268,46.76832],[23.62252,46.76833],[23.62078,46.76828],[23.62036,46.76832],[23.62022,46.76836]]},"properties":{"name":"Strada Unirii","highway":"residential","custom-speed":"50","maxspeed":"RO:urban","number-of-cars":"0","profile":"car","distance":"2070.126","time":"149.0491"}},{"type":"Feature","name":"ShapeMeta","geometry":{"type":"LineString","coordinates":[[23.62022,46.76836],[23.62008,46.76841],[23.61965,46.76855],[23.61935,46.76863]]},"properties":{"name":"Strada Unirii","highway":"residential","custom-speed":"50","maxspeed":"RO:urban","number-of-cars":"0","profile":"car","distance":"2143.226","time":"154.3123"}},{"type":"Feature","name":"ShapeMeta","geometry":{"type":"LineString","coordinates":[[23.61935,46.76863],[23.61914,46.76869]]},"properties":{"name":"Strada Unirii","highway":"residential","custom-speed":"50","maxspeed":"RO:urban","number-of-cars":"0","profile":"car","distance":"2160.326","time":"155.5435"}},{"type":"Feature","name":"ShapeMeta","geometry":{"type":"LineString","coordinates":[[23.61914,46.76869],[23.61914,46.76879],[23.6191,46.76887],[23.61899,46.76894]]},"properties":{"name":"Bulevardul Nicolae Titulescu","highway":"residential","custom-speed":"50","maxspeed":"RO:urban","number-of-cars":"0","profile":"car","distance":"2192.226","time":"157.8403"}},{"type":"Feature","name":"ShapeMeta","geometry":{"type":"LineString","coordinates":[[23.61899,46.76894],[23.61884,46.76895]]},"properties":{"name":"Bulevardul Nicolae Titulescu","highway":"residential","custom-speed":"50","maxspeed":"RO:urban","number-of-cars":"0","profile":"car","distance":"2203.326","time":"158.6395"}},{"type":"Feature","name":"ShapeMeta","geometry":{"type":"LineString","coordinates":[[23.61884,46.76895],[23.6187,46.76889],[23.61862,46.76881]]},"properties":{"name":"Bulevardul Nicolae Titulescu","highway":"residential","custom-speed":"50","maxspeed":"RO:urban","number-of-cars":"0","profile":"car","distance":"2226.826","time":"160.3315"}},{"type":"Feature","name":"ShapeMeta","geometry":{"type":"LineString","coordinates":[[23.61862,46.76881],[23.61823,46.76886],[23.61765,46.76895]]},"properties":{"name":"Bulevardul Nicolae Titulescu","highway":"residential","custom-speed":"50","maxspeed":"RO:urban","number-of-cars":"0","profile":"car","distance":"2302.626","time":"165.7891"}},{"type":"Feature","name":"ShapeMeta","geometry":{"type":"LineString","coordinates":[[23.61765,46.76895],[23.61647,46.76908],[23.61626,46.7691]]},"properties":{"name":"Bulevardul Nicolae Titulescu","highway":"residential","custom-speed":"50","maxspeed":"RO:urban","number-of-cars":"0","profile":"car","distance":"2409.926","time":"173.5147"}},{"type":"Feature","name":"ShapeMeta","geometry":{"type":"LineString","coordinates":[[23.61626,46.7691],[23.61571,46.76916]]},"properties":{"name":"Bulevardul Nicolae Titulescu","highway":"residential","custom-speed":"50","maxspeed":"RO:urban","number-of-cars":"0","profile":"car","distance":"2452.226","time":"176.5603"}},{"type":"Feature","name":"ShapeMeta","geometry":{"type":"LineString","coordinates":[[23.61571,46.76916],[23.61551,46.76918],[23.61425,46.76933],[23.61359,46.7694]]},"properties":{"name":"Bulevardul Nicolae Titulescu","highway":"residential","custom-speed":"50","maxspeed":"RO:urban","number-of-cars":"0","profile":"car","distance":"2616.026","time":"188.3539"}},{"type":"Feature","name":"ShapeMeta","geometry":{"type":"LineString","coordinates":[[23.61359,46.7694],[23.61304,46.76944]]},"properties":{"name":"Bulevardul Nicolae Titulescu","highway":"residential","custom-speed":"50","maxspeed":"RO:urban","number-of-cars":"0","profile":"car","distance":"2657.926","time":"191.3707"}},{"type":"Feature","name":"ShapeMeta","geometry":{"type":"LineString","coordinates":[[23.61304,46.76944],[23.61288,46.76944],[23.6123,46.76944]]},"properties":{"name":"Bulevardul Nicolae Titulescu","highway":"residential","custom-speed":"50","maxspeed":"RO:urban","number-of-cars":"0","profile":"car","distance":"2714.226","time":"195.4243"}},{"type":"Feature","name":"ShapeMeta","geometry":{"type":"LineString","coordinates":[[23.6123,46.76944],[23.61166,46.76941]]},"properties":{"name":"Bulevardul Nicolae Titulescu","highway":"residential","custom-speed":"50","maxspeed":"RO:urban","number-of-cars":"0","profile":"car","distance":"2763.126","time":"198.9451"}},{"type":"Feature","name":"ShapeMeta","geometry":{"type":"LineString","coordinates":[[23.61166,46.76941],[23.60995,46.76929],[23.6097,46.76928],[23.60956,46.76926]]},"properties":{"name":"Bulevardul Nicolae Titulescu","highway":"residential","custom-speed":"50","maxspeed":"RO:urban","number-of-cars":"0","profile":"car","distance":"2923.426","time":"210.4867"}},{"type":"Feature","name":"ShapeMeta","geometry":{"type":"LineString","coordinates":[[23.60956,46.76926],[23.60929,46.76935]]},"properties":{"name":"Bulevardul Nicolae Titulescu","highway":"residential","custom-speed":"50","maxspeed":"RO:urban","number-of-cars":"0","profile":"car","distance":"2946.626","time":"212.1571"}},{"type":"Feature","name":"ShapeMeta","geometry":{"type":"LineString","coordinates":[[23.60929,46.76935],[23.60924,46.76938],[23.60916,46.7694]]},"properties":{"name":"Bulevardul Nicolae Titulescu","highway":"residential","custom-speed":"50","maxspeed":"RO:urban","number-of-cars":"0","profile":"car","distance":"2958.126","time":"212.9851"}},{"type":"Feature","name":"ShapeMeta","geometry":{"type":"LineString","coordinates":[[23.60916,46.7694],[23.6091,46.76941],[23.60898,46.76938],[23.60891,46.76934]]},"properties":{"name":"Bulevardul Nicolae Titulescu","highway":"residential","custom-speed":"50","maxspeed":"RO:urban","number-of-cars":"0","profile":"car","distance":"2979.026","time":"214.4899"}},{"type":"Feature","name":"ShapeMeta","geometry":{"type":"LineString","coordinates":[[23.60891,46.76934],[23.60863,46.7692]]},"properties":{"name":"Bulevardul Nicolae Titulescu","highway":"residential","custom-speed":"50","maxspeed":"RO:urban","number-of-cars":"0","profile":"car","distance":"3004.826","time":"216.3475"}},{"type":"Feature","name":"ShapeMeta","geometry":{"type":"LineString","coordinates":[[23.60863,46.7692],[23.60802,46.76916],[23.60688,46.76905],[23.60649,46.769]]},"properties":{"name":"Bulevardul Nicolae Titulescu","highway":"residential","custom-speed":"50","maxspeed":"RO:urban","number-of-cars":"0","profile":"car","distance":"3169.826","time":"228.2275"}},{"type":"Feature","name":"ShapeMeta","geometry":{"type":"LineString","coordinates":[[23.60649,46.769],[23.60593,46.76892]]},"properties":{"name":"Bulevardul Nicolae Titulescu","highway":"residential","custom-speed":"50","maxspeed":"RO:urban","number-of-cars":"0","profile":"car","distance":"3212.926","time":"231.3307"}},{"type":"Feature","name":"ShapeMeta","geometry":{"type":"LineString","coordinates":[[23.60593,46.76892],[23.60476,46.76869]]},"properties":{"name":"Bulevardul Nicolae Titulescu","highway":"residential","custom-speed":"50","maxspeed":"RO:urban","number-of-cars":"0","profile":"car","distance":"3306.226","time":"238.0483"}},{"type":"Feature","name":"ShapeMeta","geometry":{"type":"LineString","coordinates":[[23.60476,46.76869],[23.60439,46.7686],[23.6036,46.76839],[23.60316,46.76827]]},"properties":{"name":"Bulevardul Nicolae Titulescu","highway":"residential","custom-speed":"50","maxspeed":"RO:urban","number-of-cars":"0","profile":"car","distance":"3436.126","time":"247.4011"}},{"type":"Feature","name":"ShapeMeta","geometry":{"type":"LineString","coordinates":[[23.60316,46.76827],[23.60284,46.76818]]},"properties":{"name":"Bulevardul Nicolae Titulescu","highway":"residential","custom-speed":"50","maxspeed":"RO:urban","number-of-cars":"0","profile":"car","distance":"3462.626","time":"249.3091"}},{"type":"Feature","name":"ShapeMeta","geometry":{"type":"LineString","coordinates":[[23.60284,46.76818],[23.60279,46.76817]]},"properties":{"name":"Bulevardul Nicolae Titulescu","highway":"residential","custom-speed":"50","maxspeed":"RO:urban","number-of-cars":"0","profile":"car","distance":"3466.726","time":"249.6043"}},{"type":"Feature","name":"ShapeMeta","geometry":{"type":"LineString","coordinates":[[23.60279,46.76817],[23.60263,46.76815],[23.60229,46.76805]]},"properties":{"name":"Bulevardul Nicolae Titulescu","highway":"residential","custom-speed":"50","maxspeed":"RO:urban","number-of-cars":"0","profile":"car","distance":"3506.526","time":"252.4699"}},{"type":"Feature","name":"ShapeMeta","geometry":{"type":"LineString","coordinates":[[23.60229,46.76805],[23.60142,46.76781],[23.60111,46.76773]]},"properties":{"name":"Bulevardul Nicolae Titulescu","highway":"residential","custom-speed":"50","maxspeed":"RO:urban","number-of-cars":"0","profile":"car","distance":"3603.626","time":"259.4611"}},{"type":"Feature","name":"ShapeMeta","geometry":{"type":"LineString","coordinates":[[23.60111,46.76773],[23.60096,46.76769]]},"properties":{"name":"Bulevardul Nicolae Titulescu","highway":"residential","maxspeed":"RO:urban","number-of-cars":"0","custom-speed":"1","profile":"car","distance":"3615.526","time":"302.3011"}},{"type":"Feature","name":"ShapeMeta","geometry":{"type":"LineString","coordinates":[[23.60096,46.76769],[23.60023,46.76751],[23.60008,46.7675]]},"properties":{"name":"Bulevardul Nicolae Titulescu","highway":"residential","custom-speed":"50","maxspeed":"RO:urban","number-of-cars":"0","profile":"car","distance":"3686.326","time":"307.3987"}},{"type":"Feature","name":"ShapeMeta","geometry":{"type":"LineString","coordinates":[[23.60008,46.7675],[23.59995,46.76754],[23.59993,46.76756]]},"properties":{"name":"Pia»õa Timotei Cipariu","highway":"residential","maxspeed":"RO:urban","number-of-cars":"0","custom-speed":"1","profile":"car","distance":"3699.177","time":"353.6635"}},{"type":"Feature","name":"Stop","Shape":"0","geometry":{"type":"Point","coordinates":[23.63103,46.76819]},"properties":{"distance":"0","time":"0"}},{"type":"Feature","name":"Stop","Shape":"109","geometry":{"type":"Point","coordinates":[23.59993,46.76755]},"properties":{"distance":"3699.177","time":"353.6635"}}]}