{"type":"FeatureCollection","features":[{"type":"Feature","name":"ShapeMeta","geometry":{"type":"LineString","coordinates":[[23.62989,46.76829],[23.63009,46.76839]]},"properties":{"name":"Strada Unirii","oneway":"yes","highway":"residential","profile":"car","distance":"19.43867","time":"1.866113"}},{"type":"Feature","name":"ShapeMeta","geometry":{"type":"LineString","coordinates":[[23.63009,46.76839],[23.63017,46.76839],[23.63024,46.76841],[23.6303,46.76845],[23.63033,46.7685]]},"properties":{"name":"Strada Unirii","oneway":"yes","highway":"residential","profile":"car","distance":"43.53867","time":"4.179713"}},{"type":"Feature","name":"ShapeMeta","geometry":{"type":"LineString","coordinates":[[23.63033,46.7685],[23.63033,46.76855],[23.63029,46.76861]]},"properties":{"name":"Strada Unirii","oneway":"yes","highway":"residential","profile":"car","distance":"55.83867","time":"5.360513"}},{"type":"Feature","name":"ShapeMeta","geometry":{"type":"LineString","coordinates":[[23.63029,46.76861],[23.63026,46.76863]]},"properties":{"name":"Strada Unirii","oneway":"yes","highway":"residential","profile":"car","distance":"58.93867","time":"5.658113"}},{"type":"Feature","name":"ShapeMeta","geometry":{"type":"LineString","coordinates":[[23.63026,46.76863],[23.63024,46.76864],[23.63018,46.76866],[23.6301,46.76866]]},"properties":{"name":"Strada Unirii","oneway":"yes","highway":"residential","profile":"car","distance":"72.43867","time":"6.954113"}},{"type":"Feature","name":"ShapeMeta","geometry":{"type":"LineString","coordinates":[[23.6301,46.76866],[23.63007,46.76865]]},"properties":{"name":"Strada Unirii","oneway":"yes","highway":"residential","profile":"car","distance":"75.03867","time":"7.203713"}},{"type":"Feature","name":"ShapeMeta","geometry":{"type":"LineString","coordinates":[[23.63007,46.76865],[23.62981,46.7688]]},"properties":{"name":"Strada Unirii","oneway":"yes","highway":"residential","profile":"car","distance":"100.9387","time":"9.690113"}},{"type":"Feature","name":"ShapeMeta","geometry":{"type":"LineString","coordinates":[[23.62981,46.7688],[23.62969,46.76889]]},"properties":{"name":"Strada Alexandru Vaida Voevod","oneway":"yes","highway":"residential","profile":"car","distance":"114.2387","time":"10.96691"}},{"type":"Feature","name":"ShapeMeta","geometry":{"type":"LineString","coordinates":[[23.62969,46.76889],[23.62926,46.7692]]},"properties":{"name":"Strada Alexandru Vaida Voevod","highway":"primary","junction":"roundabout","profile":"car","distance":"161.3387","time":"13.47891"}},{"type":"Feature","name":"ShapeMeta","geometry":{"type":"LineString","coordinates":[[23.62926,46.7692],[23.6292,46.76924]]},"properties":{"name":"Strada Alexandru Vaida Voevod","oneway":"yes","highway":"residential","profile":"car","distance":"167.5387","time":"14.07411"}},{"type":"Feature","name":"ShapeMeta","geometry":{"type":"LineString","coordinates":[[23.6292,46.76924],[23.62876,46.76954],[23.62866,46.76961]]},"properties":{"name":"Strada Alexandru Vaida Voevod","oneway":"yes","highway":"residential","profile":"car","distance":"226.1387","time":"19.69971"}},{"type":"Feature","name":"ShapeMeta","geometry":{"type":"LineString","coordinates":[[23.62866,46.76961],[23.62863,46.76963]]},"properties":{"name":"Strada Alexandru Vaida Voevod","oneway":"yes","highway":"residential","profile":"car","distance":"229.4387","time":"20.01651"}},{"type":"Feature","name":"ShapeMeta","geometry":{"type":"LineString","coordinates":[[23.62863,46.76963],[23.62821,46.76992],[23.62814,46.76997]]},"properties":{"name":"Strada Alexandru Vaida Voevod","oneway":"yes","highway":"residential","profile":"car","distance":"282.2387","time":"25.08531"}},{"type":"Feature","name":"ShapeMeta","geometry":{"type":"LineString","coordinates":[[23.62814,46.76997],[23.62802,46.77005],[23.62792,46.77012]]},"properties":{"name":"Strada Alexandru Vaida Voevod","oneway":"yes","highway":"residential","profile":"car","distance":"305.4387","time":"27.31251"}},{"type":"Feature","name":"ShapeMeta","geometry":{"type":"LineString","coordinates":[[23.62792,46.77012],[23.62773,46.77024]]},"properties":{"name":"Strada Alexandru Vaida Voevod","highway":"primary","junction":"roundabout","profile":"car","distance":"325.2387","time":"28.36851"}},{"type":"Feature","name":"ShapeMeta","geometry":{"type":"LineString","coordinates":[[23.62773,46.77024],[23.62669,46.77087],[23.62658,46.77093],[23.62654,46.77095]]},"properties":{"name":"Strada Alexandru Vaida Voevod","oneway":"yes","highway":"residential","profile":"car","distance":"445.2387","time":"39.88851"}},{"type":"Feature","name":"ShapeMeta","geometry":{"type":"LineString","coordinates":[[23.62654,46.77095],[23.6264,46.77102],[23.62561,46.77142]]},"properties":{"name":"Strada Alexandru Vaida Voevod","oneway":"yes","highway":"residential","profile":"car","distance":"533.3387","time":"48.34611"}},{"type":"Feature","name":"ShapeMeta","geometry":{"type":"LineString","coordinates":[[23.62561,46.77142],[23.62541,46.77151],[23.62538,46.77152],[23.62531,46.77155]]},"properties":{"name":"Strada Alexandru Vaida Voevod","oneway":"yes","highway":"residential","profile":"car","distance":"560.4387","time":"50.94771"}},{"type":"Feature","name":"ShapeMeta","geometry":{"type":"LineString","coordinates":[[23.62531,46.77155],[23.62521,46.7716],[23.62504,46.77167],[23.62501,46.77169]]},"properties":{"name":"Strada Alexandru Vaida Voevod","oneway":"yes","highway":"residential","profile":"car","distance":"588.0387","time":"53.59731"}},{"type":"Feature","name":"ShapeMeta","geometry":{"type":"LineString","coordinates":[[23.62501,46.77169],[23.62498,46.7717]]},"properties":{"name":"Strada Alexandru Vaida Voevod","maxspeed":"RO:urban","highway":"secondary","profile":"car","distance":"590.5387","time":"53.76874"}},{"type":"Feature","name":"ShapeMeta","geometry":{"type":"LineString","coordinates":[[23.62498,46.7717],[23.62495,46.77171],[23.62486,46.77176],[23.62476,46.7718]]},"properties":{"name":"Strada Alexandru Vaida Voevod","oneway":"yes","highway":"residential","profile":"car","distance":"610.9387","time":"55.72714"}},{"type":"Feature","name":"ShapeMeta","geometry":{"type":"LineString","coordinates":[[23.62476,46.7718],[23.62423,46.77203]]},"properties":{"name":"Strada Alexandru Vaida Voevod","oneway":"yes","highway":"residential","profile":"car","distance":"658.6387","time":"60.30634"}},{"type":"Feature","name":"ShapeMeta","geometry":{"type":"LineString","coordinates":[[23.62423,46.77203],[23.62404,46.77217]]},"properties":{"oneway":"yes","highway":"residential","profile":"car","distance":"680.1387","time":"62.37034"}},{"type":"Feature","name":"ShapeMeta","geometry":{"type":"LineString","coordinates":[[23.62404,46.77217],[23.62404,46.77221],[23.62398,46.77228],[23.62392,46.77229],[23.62386,46.77229]]},"properties":{"oneway":"yes","highway":"residential","profile":"car","distance":"702.9387","time":"64.55914"}},{"type":"Feature","name":"ShapeMeta","geometry":{"type":"LineString","coordinates":[[23.62386,46.77229],[23.6238,46.77228],[23.62375,46.77225],[23.62373,46.77221]]},"properties":{"oneway":"yes","maxspeed":"RO:urban","highway":"secondary","junction":"roundabout","profile":"car","distance":"717.4387","time":"65.55343"}},{"type":"Feature","name":"ShapeMeta","geometry":{"type":"LineString","coordinates":[[23.62373,46.77221],[23.62374,46.77216]]},"properties":{"oneway":"yes","maxspeed":"RO:urban","highway":"secondary","junction":"roundabout","profile":"car","distance":"722.4387","time":"65.89629"}},{"type":"Feature","name":"ShapeMeta","geometry":{"type":"LineString","coordinates":[[23.62374,46.77216],[23.62337,46.77198],[23.62298,46.77183],[23.62234,46.77162]]},"properties":{"name":"Aleea Slănic","oneway":"yes","maxspeed":"RO:urban","highway":"secondary","profile":"car","distance":"844.9387","time":"74.2963"}},{"type":"Feature","name":"ShapeMeta","geometry":{"type":"LineString","coordinates":[[23.62234,46.77162],[23.62198,46.77151],[23.62101,46.77125],[23.62038,46.771],[23.61947,46.77042],[23.61923,46.7702]]},"properties":{"name":"Aleea Slănic","oneway":"yes","maxspeed":"RO:urban","highway":"secondary","profile":"car","distance":"1134.239","time":"94.13402"}},{"type":"Feature","name":"ShapeMeta","geometry":{"type":"LineString","coordinates":[[23.61923,46.7702],[23.6191,46.77004],[23.61902,46.76989],[23.61896,46.76976]]},"properties":{"name":"Aleea Slănic","oneway":"yes","maxspeed":"RO:urban","highway":"secondary","profile":"car","distance":"1188.239","time":"97.83688"}},{"type":"Feature","name":"ShapeMeta","geometry":{"type":"LineString","coordinates":[[23.61896,46.76976],[23.61884,46.76895]]},"properties":{"name":"Aleea Slănic","oneway":"yes","maxspeed":"RO:urban","highway":"secondary","profile":"car","distance":"1278.539","time":"104.0289"}},{"type":"Feature","name":"ShapeMeta","geometry":{"type":"LineString","coordinates":[[23.61884,46.76895],[23.6187,46.76889],[23.61862,46.76881]]},"properties":{"name":"Bulevardul Nicolae Titulescu","oneway":"yes","highway":"residential","profile":"car","distance":"1302.039","time":"106.2849"}},{"type":"Feature","name":"ShapeMeta","geometry":{"type":"LineString","coordinates":[[23.61862,46.76881],[23.61863,46.76871],[23.61872,46.76862],[23.61885,46.76859]]},"properties":{"name":"Bulevardul Nicolae Titulescu","maxspeed":"RO:urban","highway":"secondary","junction":"roundabout","profile":"car","distance":"1335.239","time":"108.5615"}},{"type":"Feature","name":"ShapeMeta","geometry":{"type":"LineString","coordinates":[[23.61885,46.76859],[23.61885,46.76846],[23.61885,46.7683],[23.61922,46.76751]]},"properties":{"name":"Strada Liviu Rebreanu","maxspeed":"RO:urban","highway":"residential","profile":"car","distance":"1458.639","time":"120.4079"}},{"type":"Feature","name":"ShapeMeta","geometry":{"type":"LineString","coordinates":[[23.61922,46.76751],[23.61938,46.76716]]},"properties":{"name":"Strada Liviu Rebreanu","maxspeed":"RO:urban","highway":"residential","profile":"car","distance":"1499.939","time":"124.3727"}},{"type":"Feature","name":"ShapeMeta","geometry":{"type":"LineString","coordinates":[[23.61938,46.76716],[23.6193,46.76714],[23.61844,46.76699]]},"properties":{"name":"Strada Tache Ionescu","maxspeed":"RO:urban","highway":"residential","profile":"car","distance":"1573.939","time":"131.4767"}},{"type":"Feature","name":"ShapeMeta","geometry":{"type":"LineString","coordinates":[[23.61844,46.76699],[23.61781,46.7669]]},"properties":{"name":"Strada Tache Ionescu","maxspeed":"RO:urban","highway":"residential","profile":"car","distance":"1623.339","time":"136.2191"}},{"type":"Feature","name":"ShapeMeta","geometry":{"type":"LineString","coordinates":[[23.61781,46.7669],[23.61775,46.76689]]},"properties":{"name":"Strada Tache Ionescu","maxspeed":"RO:urban","highway":"residential","profile":"car","distance":"1627.939","time":"136.6607"}},{"type":"Feature","name":"ShapeMeta","geometry":{"type":"LineString","coordinates":[[23.61775,46.76689],[23.61698,46.76675]]},"properties":{"name":"Strada Tache Ionescu","maxspeed":"RO:urban","highway":"residential","profile":"car","distance":"1687.939","time":"142.4207"}},{"type":"Feature","name":"ShapeMeta","geometry":{"type":"LineString","coordinates":[[23.61698,46.76675],[23.61372,46.76617],[23.61363,46.76616],[23.6135,46.76614]]},"properties":{"name":"Strada Tache Ionescu","maxspeed":"RO:urban","highway":"residential","profile":"car","distance":"1962.039","time":"168.7343"}},{"type":"Feature","name":"ShapeMeta","geometry":{"type":"LineString","coordinates":[[23.6135,46.76614],[23.61331,46.7661],[23.6108,46.76568]]},"properties":{"name":"Strada Tache Ionescu","oneway":"yes","maxspeed":"RO:urban","highway":"residential","profile":"car","distance":"2174.039","time":"189.0863"}},{"type":"Feature","name":"ShapeMeta","geometry":{"type":"LineString","coordinates":[[23.6108,46.76568],[23.61058,46.76562],[23.6095,46.76534]]},"properties":{"name":"Strada Tache Ionescu","maxspeed":"RO:urban","highway":"residential","profile":"car","distance":"2279.639","time":"199.2239"}},{"type":"Feature","name":"ShapeMeta","geometry":{"type":"LineString","coordinates":[[23.6095,46.76534],[23.60863,46.7651],[23.60802,46.7649],[23.60794,46.76488]]},"properties":{"name":"Strada Tache Ionescu","maxspeed":"RO:urban","highway":"residential","profile":"car","distance":"2409.139","time":"211.6559"}},{"type":"Feature","name":"ShapeMeta","geometry":{"type":"LineString","coordinates":[[23.60794,46.76488],[23.60787,46.76486],[23.60692,46.76451],[23.60683,46.76447]]},"properties":{"name":"Strada Tache Ionescu","maxspeed":"RO:urban","highway":"residential","profile":"car","distance":"2504.939","time":"220.8527"}},{"type":"Feature","name":"ShapeMeta","geometry":{"type":"LineString","coordinates":[[23.60683,46.76447],[23.60682,46.76448],[23.60679,46.76448],[23.60678,46.76448]]},"properties":{"name":"Strada Constantin Brâncuși","oneway":"yes","maxspeed":"RO:urban","highway":"secondary","junction":"roundabout","profile":"car","distance":"2508.939","time":"221.127"}},{"type":"Feature","name":"ShapeMeta","geometry":{"type":"LineString","coordinates":[[23.60678,46.76448],[23.6066,46.76458],[23.60531,46.7653]]},"properties":{"name":"Strada Constantin Brâncuși","maxspeed":"RO:urban","highway":"secondary","profile":"car","distance":"2653.439","time":"231.0356"}},{"type":"Feature","name":"ShapeMeta","geometry":{"type":"LineString","coordinates":[[23.60531,46.7653],[23.60341,46.7664]]},"properties":{"name":"Strada Constantin Brâncuși","maxspeed":"RO:urban","highway":"secondary","profile":"car","distance":"2843.039","time":"244.0367"}},{"type":"Feature","name":"ShapeMeta","geometry":{"type":"LineString","coordinates":[[23.60341,46.7664],[23.60255,46.7669]]},"properties":{"name":"Strada Constantin Brâncuși","maxspeed":"RO:urban","highway":"secondary","profile":"car","distance":"2928.839","time":"249.9201"}},{"type":"Feature","name":"ShapeMeta","geometry":{"type":"LineString","coordinates":[[23.60255,46.7669],[23.60217,46.76673]]},"properties":{"name":"Strada Zrínyi Miklós","maxspeed":"RO:urban","highway":"residential","profile":"car","distance":"2962.939","time":"253.1937"}},{"type":"Feature","name":"ShapeMeta","geometry":{"type":"LineString","coordinates":[[23.60217,46.76673],[23.60197,46.76665]]},"properties":{"name":"Strada Zrínyi Miklós","maxspeed":"RO:urban","highway":"residential","profile":"car","distance":"2981.039","time":"254.9313"}},{"type":"Feature","name":"ShapeMeta","geometry":{"type":"LineString","coordinates":[[23.60197,46.76665],[23.60102,46.76628],[23.601,46.76627]]},"properties":{"name":"Strada Zrínyi Miklós","maxspeed":"RO:urban","highway":"residential","profile":"car","distance":"3066.039","time":"263.0913"}},{"type":"Feature","name":"ShapeMeta","geometry":{"type":"LineString","coordinates":[[23.601,46.76627],[23.60101,46.76625],[23.60176,46.76523]]},"properties":{"name":"Strada Andrei Mureșanu","maxspeed":"RO:urban","highway":"residential","profile":"car","distance":"3195.739","time":"275.5425"}},{"type":"Feature","name":"ShapeMeta","geometry":{"type":"LineString","coordinates":[[23.60176,46.76523],[23.60082,46.76484]]},"properties":{"name":"Strada Dimitrie Cantemir","maxspeed":"RO:urban","highway":"residential","profile":"car","distance":"3280.139","time":"283.6449"}},{"type":"Feature","name":"ShapeMeta","geometry":{"type":"LineString","coordinates":[[23.60082,46.76484],[23.59901,46.76308]]},"properties":{"name":"Strada Dimitrie Cantemir","maxspeed":"RO:urban","highway":"residential","profile":"car","distance":"3518.539","time":"306.5313"}},{"type":"Feature","name":"ShapeMeta","geometry":{"type":"LineString","coordinates":[[23.59901,46.76308],[23.59827,46.76338]]},"properties":{"name":"Strada Nicolae Iorga","maxspeed":"RO:urban","highway":"residential","profile":"car","distance":"3583.839","time":"312.8001"}},{"type":"Feature","name":"ShapeMeta","geometry":{"type":"LineString","coordinates":[[23.59827,46.76338],[23.59784,46.76345]]},"properties":{"name":"Calea Turzii","maxspeed":"RO:urban","highway":"residential","profile":"car","distance":"3618.039","time":"316.0833"}},{"type":"Feature","name":"ShapeMeta","geometry":{"type":"LineString","coordinates":[[23.59784,46.76345],[23.59772,46.76317]]},"properties":{"name":"Calea Turzii","oneway":"yes","maxspeed":"RO:urban","highway":"residential","profile":"car","distance":"3651.039","time":"319.2513"}},{"type":"Feature","name":"ShapeMeta","geometry":{"type":"LineString","coordinates":[[23.59772,46.76317],[23.59764,46.76229]]},"properties":{"name":"Calea Turzii","oneway":"yes","maxspeed":"RO:urban","highway":"residential","profile":"car","distance":"3748.739","time":"328.6305"}},{"type":"Feature","name":"ShapeMeta","geometry":{"type":"LineString","coordinates":[[23.59764,46.76229],[23.59773,46.76223]]},"properties":{"name":"Calea Turzii","oneway":"yes","maxspeed":"RO:urban","highway":"residential","profile":"car","distance":"3759.039","time":"329.6193"}},{"type":"Feature","name":"ShapeMeta","geometry":{"type":"LineString","coordinates":[[23.59773,46.76223],[23.59771,46.76207],[23.59769,46.76195]]},"properties":{"name":"Calea Turzii","highway":"primary","maxspeed":"60","profile":"car","distance":"3789.639","time":"332.0673"}},{"type":"Feature","name":"ShapeMeta","geometry":{"type":"LineString","coordinates":[[23.59769,46.76195],[23.59767,46.76175],[23.59766,46.76168],[23.59766,46.76149]]},"properties":{"name":"Calea Turzii","highway":"primary","maxspeed":"60","profile":"car","distance":"3840.639","time":"336.1473"}},{"type":"Feature","name":"ShapeMeta","geometry":{"type":"LineString","coordinates":[[23.59766,46.76149],[23.59767,46.76136],[23.59771,46.76106],[23.59772,46.76096]]},"properties":{"name":"Calea Turzii","highway":"primary","maxspeed":"60","profile":"car","distance":"3900.139","time":"340.9073"}},{"type":"Feature","name":"ShapeMeta","geometry":{"type":"LineString","coordinates":[[23.59772,46.76096],[23.59792,46.76046],[23.59799,46.76033],[23.59843,46.75927]]},"properties":{"name":"Calea Turzii","highway":"primary","maxspeed":"60","profile":"car","distance":"4095.139","time":"356.5073"}},{"type":"Feature","name":"ShapeMeta","geometry":{"type":"LineString","coordinates":[[23.59843,46.75927],[23.59848,46.75913]]},"properties":{"name":"Calea Turzii","highway":"primary","maxspeed":"60","profile":"car","distance":"4111.739","time":"357.8353"}},{"type":"Feature","name":"ShapeMeta","geometry":{"type":"LineString","coordinates":[[23.59848,46.75913],[23.59847,46.75904],[23.59851,46.75891],[23.59848,46.75871],[23.59844,46.75862],[23.59831,46.75849],[23.59822,46.75843]]},"properties":{"name":"Calea Turzii","oneway":"yes","highway":"primary","maxspeed":"60","profile":"car","distance":"4196.539","time":"364.6193"}},{"type":"Feature","name":"ShapeMeta","geometry":{"type":"LineString","coordinates":[[23.59822,46.75843],[23.59809,46.75835],[23.59783,46.7582],[23.5977,46.75809],[23.59766,46.75803],[23.59762,46.75793],[23.59761,46.7578],[23.59766,46.75765],[23.59771,46.75763]]},"properties":{"name":"Calea Turzii","oneway":"yes","highway":"primary","maxspeed":"60","profile":"car","distance":"4306.139","time":"373.3873"}},{"type":"Feature","name":"ShapeMeta","geometry":{"type":"LineString","coordinates":[[23.59771,46.75763],[23.5979,46.75719],[23.59795,46.75694],[23.59793,46.75674],[23.59782,46.75661],[23.59769,46.75653],[23.59747,46.75642],[23.59723,46.75633],[23.59705,46.75625]]},"properties":{"name":"Calea Turzii","highway":"primary","maxspeed":"60","profile":"car","distance":"4495.639","time":"388.5473"}},{"type":"Feature","name":"ShapeMeta","geometry":{"type":"LineString","coordinates":[[23.59705,46.75625],[23.59688,46.75621],[23.59669,46.75616],[23.59638,46.75611],[23.59581,46.75605],[23.59563,46.75601]]},"properties":{"oneway":"yes","maxspeed":"RO:urban","highway":"primary_link","profile":"car","distance":"4607.739","time":"394.526"}},{"type":"Feature","name":"ShapeMeta","geometry":{"type":"LineString","coordinates":[[23.59563,46.75601],[23.59517,46.75596],[23.59493,46.75593],[23.59475,46.75588]]},"properties":{"name":"Strada Observatorului","oneway":"yes","highway":"primary","maxspeed":"RO:urban","profile":"car","distance":"4676.439","time":"398.19"}},{"type":"Feature","name":"ShapeMeta","geometry":{"type":"LineString","coordinates":[[23.59475,46.75588],[23.59461,46.75586]]},"properties":{"name":"Strada Observatorului","highway":"primary","maxspeed":"RO:urban","profile":"car","distance":"4686.939","time":"398.75"}},{"type":"Feature","name":"ShapeMeta","geometry":{"type":"LineString","coordinates":[[23.59461,46.75586],[23.59428,46.75584]]},"properties":{"name":"Strada Observatorului","highway":"primary","maxspeed":"RO:urban","profile":"car","distance":"4712.239","time":"400.0993"}},{"type":"Feature","name":"ShapeMeta","geometry":{"type":"LineString","coordinates":[[23.59428,46.75584],[23.59412,46.75583],[23.59382,46.75579],[23.59369,46.75578]]},"properties":{"name":"Strada Observatorului","highway":"primary","maxspeed":"RO:urban","profile":"car","distance":"4757.939","time":"402.5367"}},{"type":"Feature","name":"ShapeMeta","geometry":{"type":"LineString","coordinates":[[23.59369,46.75578],[23.59288,46.7557]]},"properties":{"name":"Strada Observatorului","highway":"primary","maxspeed":"RO:urban","profile":"car","distance":"4819.739","time":"405.8327"}},{"type":"Feature","name":"ShapeMeta","geometry":{"type":"LineString","coordinates":[[23.59288,46.7557],[23.58873,46.75526]]},"properties":{"name":"Strada Observatorului","highway":"primary","maxspeed":"RO:urban","profile":"car","distance":"5139.839","time":"422.9047"}},{"type":"Feature","name":"ShapeMeta","geometry":{"type":"LineString","coordinates":[[23.58873,46.75526],[23.58849,46.75523],[23.5882,46.75518]]},"properties":{"name":"Strada Observatorului","highway":"primary","maxspeed":"RO:urban","profile":"car","distance":"5181.139","time":"425.1074"}},{"type":"Feature","name":"ShapeMeta","geometry":{"type":"LineString","coordinates":[[23.5882,46.75518],[23.58666,46.7549]]},"properties":{"name":"Strada Observatorului","highway":"primary","maxspeed":"RO:urban","profile":"car","distance":"5302.339","time":"431.5714"}},{"type":"Feature","name":"ShapeMeta","geometry":{"type":"LineString","coordinates":[[23.58666,46.7549],[23.58653,46.75488]]},"properties":{"name":"Strada Observatorului","highway":"primary","maxspeed":"RO:urban","profile":"car","distance":"5312.839","time":"432.1314"}},{"type":"Feature","name":"ShapeMeta","geometry":{"type":"LineString","coordinates":[[23.58653,46.75488],[23.58576,46.75473]]},"properties":{"name":"Strada Observatorului","highway":"primary","maxspeed":"RO:urban","profile":"car","distance":"5373.539","time":"435.3687"}},{"type":"Feature","name":"ShapeMeta","geometry":{"type":"LineString","coordinates":[[23.58576,46.75473],[23.58558,46.75469],[23.58426,46.75446],[23.58419,46.75444]]},"properties":{"name":"Strada Observatorului","highway":"primary","maxspeed":"RO:urban","profile":"car","distance":"5497.039","time":"441.9554"}},{"type":"Feature","name":"ShapeMeta","geometry":{"type":"LineString","coordinates":[[23.58419,46.75444],[23.58411,46.75443]]},"properties":{"name":"Strada Observatorului","highway":"primary","maxspeed":"RO:urban","profile":"car","distance":"5503.639","time":"442.3074"}},{"type":"Feature","name":"ShapeMeta","geometry":{"type":"LineString","coordinates":[[23.58411,46.75443],[23.5841,46.75444],[23.58406,46.75446],[23.58403,46.75446]]},"properties":{"name":"Strada Observatorului","highway":"primary","maxspeed":"RO:urban","junction":"roundabout","profile":"car","distance":"5511.139","time":"442.7074"}},{"type":"Feature","name":"ShapeMeta","geometry":{"type":"LineString","coordinates":[[23.58403,46.75446],[23.58401,46.75446],[23.58396,46.75442],[23.58396,46.7544]]},"properties":{"name":"Strada Observatorului","highway":"primary","maxspeed":"RO:urban","junction":"roundabout","profile":"car","distance":"5521.139","time":"443.2407"}},{"type":"Feature","name":"ShapeMeta","geometry":{"type":"LineString","coordinates":[[23.58396,46.7544],[23.58376,46.75434],[23.58355,46.75428]]},"properties":{"name":"Strada Observatorului","highway":"primary","maxspeed":"RO:urban","profile":"car","distance":"5555.239","time":"445.0594"}},{"type":"Feature","name":"ShapeMeta","geometry":{"type":"LineString","coordinates":[[23.58355,46.75428],[23.58342,46.75424],[23.58185,46.75379],[23.58132,46.75364]]},"properties":{"name":"Strada Observatorului","highway":"primary","maxspeed":"RO:urban","profile":"car","distance":"5738.839","time":"454.8514"}},{"type":"Feature","name":"ShapeMeta","geometry":{"type":"LineString","coordinates":[[23.58132,46.75364],[23.57927,46.7531]]},"properties":{"name":"Strada Observatorului","highway":"primary","maxspeed":"RO:urban","profile":"car","distance":"5906.239","time":"463.7794"}},{"type":"Feature","name":"ShapeMeta","geometry":{"type":"LineString","coordinates":[[23.57927,46.7531],[23.57899,46.75304],[23.57816,46.75282],[23.5776,46.75267]]},"properties":{"name":"Strada Observatorului","highway":"primary","maxspeed":"RO:urban","profile":"car","distance":"6042.339","time":"471.0381"}},{"type":"Feature","name":"ShapeMeta","geometry":{"type":"LineString","coordinates":[[23.5776,46.75267],[23.57731,46.75266]]},"properties":{"name":"Strada Observatorului","oneway":"yes","highway":"primary","maxspeed":"RO:urban","profile":"car","distance":"6064.139","time":"472.2007"}},{"type":"Feature","name":"ShapeMeta","geometry":{"type":"LineString","coordinates":[[23.57731,46.75266],[23.57723,46.75271],[23.57713,46.75273],[23.57702,46.75272]]},"properties":{"highway":"primary","maxspeed":"RO:urban","junction":"roundabout","profile":"car","distance":"6088.539","time":"473.502"}},{"type":"Feature","name":"ShapeMeta","geometry":{"type":"LineString","coordinates":[[23.57702,46.75272],[23.57694,46.75268],[23.57689,46.75262],[23.57687,46.75255]]},"properties":{"highway":"primary","maxspeed":"RO:urban","junction":"roundabout","profile":"car","distance":"6111.639","time":"474.734"}},{"type":"Feature","name":"ShapeMeta","geometry":{"type":"LineString","coordinates":[[23.57687,46.75255],[23.57689,46.75249],[23.57695,46.75243]]},"properties":{"highway":"primary","maxspeed":"RO:urban","junction":"roundabout","profile":"car","distance":"6125.839","time":"475.4913"}},{"type":"Feature","name":"ShapeMeta","geometry":{"type":"LineString","coordinates":[[23.57695,46.75243],[23.57703,46.7524],[23.57712,46.75239],[23.57722,46.7524]]},"properties":{"highway":"primary","maxspeed":"RO:urban","junction":"roundabout","profile":"car","distance":"6147.339","time":"476.638"}},{"type":"Feature","name":"ShapeMeta","geometry":{"type":"LineString","coordinates":[[23.57722,46.7524],[23.57729,46.75244],[23.57734,46.75249],[23.57736,46.75254]]},"properties":{"highway":"primary","maxspeed":"RO:urban","junction":"roundabout","profile":"car","distance":"6167.339","time":"477.7047"}},{"type":"Feature","name":"ShapeMeta","geometry":{"type":"LineString","coordinates":[[23.57736,46.75254],[23.57735,46.75261],[23.57732,46.75266]]},"properties":{"highway":"primary","maxspeed":"RO:urban","junction":"roundabout","profile":"car","distance":"6180.634","time":"478.4138"}},{"type":"Feature","name":"Stop","Shape":"0","geometry":{"type":"Point","coordinates":[23.62988,46.76829]},"properties":{"distance":"0","time":"0"}},{"type":"Feature","name":"Stop","Shape":"198","geometry":{"type":"Point","coordinates":[23.57726,46.75262]},"properties":{"distance":"6180.634","time":"478.4138"}}]}