{"type":"FeatureCollection","features":[{"type":"Feature","name":"ShapeMeta","geometry":{"type":"LineString","coordinates":[[23.63093,46.76816],[23.63088,46.76832],[23.63094,46.76848]]},"properties":{"name":"Strada Alexandru Vaida Voevod","highway":"residential","custom-speed":"50","maxspeed":"RO:urban","number-of-cars":"0","profile":"car","distance":"36.47415","time":"2.626138"}},{"type":"Feature","name":"ShapeMeta","geometry":{"type":"LineString","coordinates":[[23.63094,46.76848],[23.63092,46.76857],[23.63088,46.76864],[23.63078,46.76871]]},"properties":{"name":"Strada Alexandru Vaida Voevod","highway":"residential","custom-speed":"50","maxspeed":"RO:urban","number-of-cars":"0","profile":"car","distance":"65.77415","time":"4.735738"}},{"type":"Feature","name":"ShapeMeta","geometry":{"type":"LineString","coordinates":[[23.63078,46.76871],[23.63056,46.76866],[23.63029,46.76861]]},"properties":{"name":"Strada Lucia Sturdza Bulandra","highway":"residential","custom-speed":"50","maxspeed":"RO:urban","number-of-cars":"0","profile":"car","distance":"104.0741","time":"7.493338"}},{"type":"Feature","name":"ShapeMeta","geometry":{"type":"LineString","coordinates":[[23.63029,46.76861],[23.63026,46.76863]]},"properties":{"name":"Strada Unirii","highway":"residential","custom-speed":"50","maxspeed":"RO:urban","number-of-cars":"0","profile":"car","distance":"107.1741","time":"7.716538"}},{"type":"Feature","name":"ShapeMeta","geometry":{"type":"LineString","coordinates":[[23.63026,46.76863],[23.63024,46.76864],[23.63018,46.76866],[23.6301,46.76866]]},"properties":{"name":"Strada Unirii","highway":"residential","maxspeed":"RO:urban","number-of-cars":"0","custom-speed":"1","profile":"car","distance":"120.6741","time":"56.31654"}},{"type":"Feature","name":"ShapeMeta","geometry":{"type":"LineString","coordinates":[[23.6301,46.76866],[23.63007,46.76865]]},"properties":{"name":"Strada Unirii","highway":"residential","custom-speed":"50","maxspeed":"RO:urban","number-of-cars":"0","profile":"car","distance":"123.2741","time":"56.50374"}},{"type":"Feature","name":"ShapeMeta","geometry":{"type":"LineString","coordinates":[[23.63007,46.76865],[23.62981,46.7688]]},"properties":{"name":"Strada Unirii","highway":"residential","custom-speed":"50","maxspeed":"RO:urban","number-of-cars":"0","profile":"car","distance":"149.1741","time":"58.36854"}},{"type":"Feature","name":"ShapeMeta","geometry":{"type":"LineString","coordinates":[[23.62981,46.7688],[23.62969,46.76889]]},"properties":{"name":"Strada Alexandru Vaida Voevod","highway":"residential","custom-speed":"50","maxspeed":"RO:urban","number-of-cars":"0","profile":"car","distance":"162.4741","time":"59.32614"}},{"type":"Feature","name":"ShapeMeta","geometry":{"type":"LineString","coordinates":[[23.62969,46.76889],[23.62926,46.7692]]},"properties":{"name":"Strada Alexandru Vaida Voevod","highway":"residential","custom-speed":"50","maxspeed":"RO:urban","number-of-cars":"0","profile":"car","distance":"209.5741","time":"62.71734"}},{"type":"Feature","name":"ShapeMeta","geometry":{"type":"LineString","coordinates":[[23.62926,46.7692],[23.6292,46.76924]]},"properties":{"name":"Strada Alexandru Vaida Voevod","highway":"residential","custom-speed":"50","maxspeed":"RO:urban","number-of-cars":"0","profile":"car","distance":"215.7741","time":"63.16374"}},{"type":"Feature","name":"ShapeMeta","geometry":{"type":"LineString","coordinates":[[23.6292,46.76924],[23.62876,46.76954],[23.62866,46.76961]]},"properties":{"name":"Strada Alexandru Vaida Voevod","highway":"residential","custom-speed":"50","maxspeed":"RO:urban","number-of-cars":"0","profile":"car","distance":"274.3741","time":"67.38293"}},{"type":"Feature","name":"ShapeMeta","geometry":{"type":"LineString","coordinates":[[23.62866,46.76961],[23.62863,46.76963]]},"properties":{"name":"Strada Alexandru Vaida Voevod","highway":"residential","custom-speed":"50","maxspeed":"RO:urban","number-of-cars":"0","profile":"car","distance":"277.6741","time":"67.62053"}},{"type":"Feature","name":"ShapeMeta","geometry":{"type":"LineString","coordinates":[[23.62863,46.76963],[23.62821,46.76992],[23.62814,46.76997]]},"properties":{"name":"Strada Alexandru Vaida Voevod","highway":"residential","maxspeed":"RO:urban","number-of-cars":"0","custom-speed":"1","profile":"car","distance":"330.4741","time":"257.7005"}},{"type":"Feature","name":"ShapeMeta","geometry":{"type":"LineString","coordinates":[[23.62814,46.76997],[23.62802,46.77005],[23.62792,46.77012]]},"properties":{"name":"Strada Alexandru Vaida Voevod","highway":"residential","custom-speed":"50","maxspeed":"RO:urban","number-of-cars":"0","profile":"car","distance":"353.6741","time":"259.3709"}},{"type":"Feature","name":"ShapeMeta","geometry":{"type":"LineString","coordinates":[[23.62792,46.77012],[23.62773,46.77024]]},"properties":{"name":"Strada Alexandru Vaida Voevod","highway":"residential","custom-speed":"50","maxspeed":"RO:urban","number-of-cars":"0","profile":"car","distance":"373.4741","time":"260.7965"}},{"type":"Feature","name":"ShapeMeta","geometry":{"type":"LineString","coordinates":[[23.62773,46.77024],[23.62669,46.77087],[23.62658,46.77093],[23.62654,46.77095]]},"properties":{"name":"Strada Alexandru Vaida Voevod","highway":"residential","custom-speed":"50","maxspeed":"RO:urban","number-of-cars":"0","profile":"car","distance":"493.4741","time":"269.4365"}},{"type":"Feature","name":"ShapeMeta","geometry":{"type":"LineString","coordinates":[[23.62654,46.77095],[23.6264,46.77102],[23.62561,46.77142]]},"properties":{"name":"Strada Alexandru Vaida Voevod","highway":"residential","custom-speed":"50","maxspeed":"RO:urban","number-of-cars":"0","profile":"car","distance":"581.5741","time":"275.7797"}},{"type":"Feature","name":"ShapeMeta","geometry":{"type":"LineString","coordinates":[[23.62561,46.77142],[23.62541,46.77151],[23.62538,46.77152],[23.62531,46.77155]]},"properties":{"name":"Strada Alexandru Vaida Voevod","highway":"residential","custom-speed":"50","maxspeed":"RO:urban","number-of-cars":"0","profile":"car","distance":"608.6741","time":"277.7309"}},{"type":"Feature","name":"ShapeMeta","geometry":{"type":"LineString","coordinates":[[23.62531,46.77155],[23.62521,46.7716],[23.62504,46.77167],[23.62501,46.77169]]},"properties":{"name":"Strada Alexandru Vaida Voevod","highway":"residential","custom-speed":"50","maxspeed":"RO:urban","number-of-cars":"0","profile":"car","distance":"636.274","time":"279.7181"}},{"type":"Feature","name":"ShapeMeta","geometry":{"type":"LineString","coordinates":[[23.62501,46.77169],[23.62498,46.7717]]},"properties":{"name":"Strada Alexandru Vaida Voevod","highway":"secondary","profile":"car","distance":"638.774","time":"279.8895"}},{"type":"Feature","name":"ShapeMeta","geometry":{"type":"LineString","coordinates":[[23.62498,46.7717],[23.62495,46.77171],[23.62486,46.77176],[23.62476,46.7718]]},"properties":{"name":"Strada Alexandru Vaida Voevod","highway":"residential","custom-speed":"50","maxspeed":"RO:urban","number-of-cars":"0","profile":"car","distance":"659.174","time":"281.3583"}},{"type":"Feature","name":"ShapeMeta","geometry":{"type":"LineString","coordinates":[[23.62476,46.7718],[23.62423,46.77203]]},"properties":{"name":"Strada Alexandru Vaida Voevod","highway":"residential","custom-speed":"50","maxspeed":"RO:urban","number-of-cars":"0","profile":"car","distance":"706.874","time":"284.7927"}},{"type":"Feature","name":"ShapeMeta","geometry":{"type":"LineString","coordinates":[[23.62423,46.77203],[23.62404,46.77217]]},"properties":{"highway":"residential","custom-speed":"50","maxspeed":"RO:urban","number-of-cars":"0","profile":"car","distance":"728.374","time":"286.3407"}},{"type":"Feature","name":"ShapeMeta","geometry":{"type":"LineString","coordinates":[[23.62404,46.77217],[23.62404,46.77221],[23.62398,46.77228],[23.62392,46.77229],[23.62386,46.77229]]},"properties":{"highway":"residential","custom-speed":"50","maxspeed":"RO:urban","number-of-cars":"0","profile":"car","distance":"751.174","time":"287.9823"}},{"type":"Feature","name":"ShapeMeta","geometry":{"type":"LineString","coordinates":[[23.62386,46.77229],[23.62356,46.77237]]},"properties":{"highway":"residential","custom-speed":"50","maxspeed":"RO:urban","number-of-cars":"0","profile":"car","distance":"775.174","time":"289.7103"}},{"type":"Feature","name":"ShapeMeta","geometry":{"type":"LineString","coordinates":[[23.62356,46.77237],[23.6234,46.77246],[23.62284,46.77275]]},"properties":{"name":"Strada Teodor Mihali","highway":"residential","custom-speed":"50","maxspeed":"RO:urban","number-of-cars":"0","profile":"car","distance":"844.274","time":"294.6855"}},{"type":"Feature","name":"ShapeMeta","geometry":{"type":"LineString","coordinates":[[23.62284,46.77275],[23.62257,46.77291]]},"properties":{"name":"Strada Teodor Mihali","highway":"residential","custom-speed":"50","maxspeed":"RO:urban","number-of-cars":"0","profile":"car","distance":"871.574","time":"296.6511"}},{"type":"Feature","name":"ShapeMeta","geometry":{"type":"LineString","coordinates":[[23.62257,46.77291],[23.62225,46.77267],[23.62194,46.7725]]},"properties":{"highway":"residential","custom-speed":"50","maxspeed":"RO:urban","number-of-cars":"0","profile":"car","distance":"938.374","time":"301.4607"}},{"type":"Feature","name":"ShapeMeta","geometry":{"type":"LineString","coordinates":[[23.62194,46.7725],[23.6221,46.77227],[23.62212,46.77211],[23.62217,46.77198],[23.62234,46.77162]]},"properties":{"highway":"residential","custom-speed":"50","maxspeed":"RO:urban","number-of-cars":"0","profile":"car","distance":"1040.774","time":"308.8335"}},{"type":"Feature","name":"ShapeMeta","geometry":{"type":"LineString","coordinates":[[23.62234,46.77162],[23.62198,46.77151],[23.62101,46.77125],[23.62038,46.771],[23.61947,46.77042],[23.61923,46.7702]]},"properties":{"name":"Aleea Slănic","highway":"residential","custom-speed":"50","maxspeed":"RO:urban","number-of-cars":"0","profile":"car","distance":"1330.074","time":"329.6631"}},{"type":"Feature","name":"ShapeMeta","geometry":{"type":"LineString","coordinates":[[23.61923,46.7702],[23.6191,46.77004],[23.61902,46.76989],[23.61896,46.76976]]},"properties":{"name":"Aleea Slănic","highway":"residential","custom-speed":"50","maxspeed":"RO:urban","number-of-cars":"0","profile":"car","distance":"1384.074","time":"333.5511"}},{"type":"Feature","name":"ShapeMeta","geometry":{"type":"LineString","coordinates":[[23.61896,46.76976],[23.61884,46.76895]]},"properties":{"name":"Aleea Slănic","highway":"residential","custom-speed":"50","maxspeed":"RO:urban","number-of-cars":"0","profile":"car","distance":"1474.374","time":"340.0527"}},{"type":"Feature","name":"ShapeMeta","geometry":{"type":"LineString","coordinates":[[23.61884,46.76895],[23.6187,46.76889],[23.61862,46.76881]]},"properties":{"name":"Bulevardul Nicolae Titulescu","highway":"residential","custom-speed":"50","maxspeed":"RO:urban","number-of-cars":"0","profile":"car","distance":"1497.874","time":"341.7447"}},{"type":"Feature","name":"ShapeMeta","geometry":{"type":"LineString","coordinates":[[23.61862,46.76881],[23.61823,46.76886],[23.61765,46.76895]]},"properties":{"name":"Bulevardul Nicolae Titulescu","highway":"residential","custom-speed":"50","maxspeed":"RO:urban","number-of-cars":"0","profile":"car","distance":"1573.674","time":"347.2023"}},{"type":"Feature","name":"ShapeMeta","geometry":{"type":"LineString","coordinates":[[23.61765,46.76895],[23.61647,46.76908],[23.61626,46.7691]]},"properties":{"name":"Bulevardul Nicolae Titulescu","highway":"residential","custom-speed":"50","maxspeed":"RO:urban","number-of-cars":"0","profile":"car","distance":"1680.974","time":"354.9279"}},{"type":"Feature","name":"ShapeMeta","geometry":{"type":"LineString","coordinates":[[23.61626,46.7691],[23.61571,46.76916]]},"properties":{"name":"Bulevardul Nicolae Titulescu","highway":"residential","custom-speed":"50","maxspeed":"RO:urban","number-of-cars":"0","profile":"car","distance":"1723.274","time":"357.9735"}},{"type":"Feature","name":"ShapeMeta","geometry":{"type":"LineString","coordinates":[[23.61571,46.76916],[23.61572,46.76947]]},"properties":{"highway":"residential","custom-speed":"50","maxspeed":"RO:urban","number-of-cars":"0","profile":"car","distance":"1757.974","time":"360.4719"}},{"type":"Feature","name":"ShapeMeta","geometry":{"type":"LineString","coordinates":[[23.61572,46.76947],[23.61571,46.76966]]},"properties":{"highway":"residential","custom-speed":"50","maxspeed":"RO:urban","number-of-cars":"0","profile":"car","distance":"1778.274","time":"361.9335"}},{"type":"Feature","name":"ShapeMeta","geometry":{"type":"LineString","coordinates":[[23.61571,46.76966],[23.61571,46.7701]]},"properties":{"highway":"residential","custom-speed":"50","maxspeed":"RO:urban","number-of-cars":"0","profile":"car","distance":"1826.974","time":"365.4399"}},{"type":"Feature","name":"ShapeMeta","geometry":{"type":"LineString","coordinates":[[23.61571,46.7701],[23.61571,46.77031]]},"properties":{"highway":"residential","custom-speed":"50","maxspeed":"RO:urban","number-of-cars":"0","profile":"car","distance":"1851.074","time":"367.1751"}},{"type":"Feature","name":"ShapeMeta","geometry":{"type":"LineString","coordinates":[[23.61571,46.77031],[23.61438,46.77032]]},"properties":{"name":"Aleea Godeanu","highway":"residential","custom-speed":"50","maxspeed":"RO:urban","number-of-cars":"0","profile":"car","distance":"1952.374","time":"374.4687"}},{"type":"Feature","name":"ShapeMeta","geometry":{"type":"LineString","coordinates":[[23.61438,46.77032],[23.61299,46.77032]]},"properties":{"name":"Aleea Godeanu","highway":"residential","custom-speed":"50","maxspeed":"RO:urban","number-of-cars":"0","profile":"car","distance":"2058.074","time":"382.0791"}},{"type":"Feature","name":"ShapeMeta","geometry":{"type":"LineString","coordinates":[[23.61299,46.77032],[23.613,46.76997]]},"properties":{"name":"Strada Arieșului","highway":"residential","custom-speed":"50","maxspeed":"RO:urban","number-of-cars":"0","profile":"car","distance":"2097.074","time":"384.8871"}},{"type":"Feature","name":"ShapeMeta","geometry":{"type":"LineString","coordinates":[[23.613,46.76997],[23.61304,46.76944]]},"properties":{"name":"Strada Arieșului","highway":"residential","custom-speed":"50","maxspeed":"RO:urban","number-of-cars":"0","profile":"car","distance":"2155.674","time":"389.1063"}},{"type":"Feature","name":"ShapeMeta","geometry":{"type":"LineString","coordinates":[[23.61304,46.76944],[23.61288,46.76944],[23.6123,46.76944]]},"properties":{"name":"Bulevardul Nicolae Titulescu","highway":"residential","custom-speed":"50","maxspeed":"RO:urban","number-of-cars":"0","profile":"car","distance":"2211.974","time":"393.1599"}},{"type":"Feature","name":"ShapeMeta","geometry":{"type":"LineString","coordinates":[[23.6123,46.76944],[23.61166,46.76941]]},"properties":{"name":"Bulevardul Nicolae Titulescu","highway":"residential","custom-speed":"50","maxspeed":"RO:urban","number-of-cars":"0","profile":"car","distance":"2260.874","time":"396.6807"}},{"type":"Feature","name":"ShapeMeta","geometry":{"type":"LineString","coordinates":[[23.61166,46.76941],[23.60995,46.76929],[23.6097,46.76928],[23.60956,46.76926]]},"properties":{"name":"Bulevardul Nicolae Titulescu","highway":"residential","custom-speed":"50","maxspeed":"RO:urban","number-of-cars":"0","profile":"car","distance":"2421.174","time":"408.2223"}},{"type":"Feature","name":"ShapeMeta","geometry":{"type":"LineString","coordinates":[[23.60956,46.76926],[23.60929,46.76935]]},"properties":{"name":"Bulevardul Nicolae Titulescu","highway":"residential","custom-speed":"50","maxspeed":"RO:urban","number-of-cars":"0","profile":"car","distance":"2444.374","time":"409.8927"}},{"type":"Feature","name":"ShapeMeta","geometry":{"type":"LineString","coordinates":[[23.60929,46.76935],[23.60924,46.76938],[23.60916,46.7694]]},"properties":{"name":"Bulevardul Nicolae Titulescu","highway":"residential","custom-speed":"50","maxspeed":"RO:urban","number-of-cars":"0","profile":"car","distance":"2455.874","time":"410.7207"}},{"type":"Feature","name":"ShapeMeta","geometry":{"type":"LineString","coordinates":[[23.60916,46.7694],[23.6091,46.76941],[23.60898,46.76938],[23.60891,46.76934]]},"properties":{"name":"Bulevardul Nicolae Titulescu","highway":"residential","custom-speed":"50","maxspeed":"RO:urban","number-of-cars":"0","profile":"car","distance":"2476.774","time":"412.2255"}},{"type":"Feature","name":"ShapeMeta","geometry":{"type":"LineString","coordinates":[[23.60891,46.76934],[23.60863,46.7692]]},"properties":{"name":"Bulevardul Nicolae Titulescu","highway":"residential","custom-speed":"50","maxspeed":"RO:urban","number-of-cars":"0","profile":"car","distance":"2502.574","time":"414.0831"}},{"type":"Feature","name":"ShapeMeta","geometry":{"type":"LineString","coordinates":[[23.60863,46.7692],[23.60802,46.76916],[23.60688,46.76905],[23.60649,46.769]]},"properties":{"name":"Bulevardul Nicolae Titulescu","highway":"residential","custom-speed":"50","maxspeed":"RO:urban","number-of-cars":"0","profile":"car","distance":"2667.574","time":"425.9631"}},{"type":"Feature","name":"ShapeMeta","geometry":{"type":"LineString","coordinates":[[23.60649,46.769],[23.60593,46.76892]]},"properties":{"name":"Bulevardul Nicolae Titulescu","highway":"residential","custom-speed":"50","maxspeed":"RO:urban","number-of-cars":"0","profile":"car","distance":"2710.674","time":"429.0663"}},{"type":"Feature","name":"ShapeMeta","geometry":{"type":"LineString","coordinates":[[23.60593,46.76892],[23.60476,46.76869]]},"properties":{"name":"Bulevardul Nicolae Titulescu","highway":"residential","custom-speed":"50","maxspeed":"RO:urban","number-of-cars":"0","profile":"car","distance":"2803.974","time":"435.7839"}},{"type":"Feature","name":"ShapeMeta","geometry":{"type":"LineString","coordinates":[[23.60476,46.76869],[23.60439,46.7686],[23.6036,46.76839],[23.60316,46.76827]]},"properties":{"name":"Bulevardul Nicolae Titulescu","highway":"residential","custom-speed":"50","maxspeed":"RO:urban","number-of-cars":"0","profile":"car","distance":"2933.874","time":"445.1367"}},{"type":"Feature","name":"ShapeMeta","geometry":{"type":"LineString","coordinates":[[23.60316,46.76827],[23.60284,46.76818]]},"properties":{"name":"Bulevardul Nicolae Titulescu","highway":"residential","custom-speed":"50","maxspeed":"RO:urban","number-of-cars":"0","profile":"car","distance":"2960.374","time":"447.0447"}},{"type":"Feature","name":"ShapeMeta","geometry":{"type":"LineString","coordinates":[[23.60284,46.76818],[23.60279,46.76817]]},"properties":{"name":"Bulevardul Nicolae Titulescu","highway":"residential","custom-speed":"50","maxspeed":"RO:urban","number-of-cars":"0","profile":"car","distance":"2964.474","time":"447.3399"}},{"type":"Feature","name":"ShapeMeta","geometry":{"type":"LineString","coordinates":[[23.60279,46.76817],[23.60263,46.76815],[23.60229,46.76805]]},"properties":{"name":"Bulevardul Nicolae Titulescu","highway":"residential","custom-speed":"50","maxspeed":"RO:urban","number-of-cars":"0","profile":"car","distance":"3004.274","time":"450.2055"}},{"type":"Feature","name":"ShapeMeta","geometry":{"type":"LineString","coordinates":[[23.60229,46.76805],[23.60142,46.76781],[23.60111,46.76773]]},"properties":{"name":"Bulevardul Nicolae Titulescu","highway":"residential","custom-speed":"50","maxspeed":"RO:urban","number-of-cars":"0","profile":"car","distance":"3101.374","time":"457.1967"}},{"type":"Feature","name":"ShapeMeta","geometry":{"type":"LineString","coordinates":[[23.60111,46.76773],[23.60096,46.76769]]},"properties":{"name":"Bulevardul Nicolae Titulescu","highway":"residential","custom-speed":"50","maxspeed":"RO:urban","number-of-cars":"0","profile":"car","distance":"3113.274","time":"458.0535"}},{"type":"Feature","name":"ShapeMeta","geometry":{"type":"LineString","coordinates":[[23.60096,46.76769],[23.60023,46.76751],[23.60008,46.7675]]},"properties":{"name":"Bulevardul Nicolae Titulescu","highway":"residential","custom-speed":"50","maxspeed":"RO:urban","number-of-cars":"0","profile":"car","distance":"3184.074","time":"463.1511"}},{"type":"Feature","name":"ShapeMeta","geometry":{"type":"LineString","coordinates":[[23.60008,46.7675],[23.59995,46.76754],[23.59993,46.76756]]},"properties":{"name":"Piața Timotei Cipariu","highway":"residential","maxspeed":"RO:urban","number-of-cars":"0","custom-speed":"1","profile":"car","distance":"3196.925","time":"509.4159"}},{"type":"Feature","name":"Stop","Shape":"0","geometry":{"type":"Point","coordinates":[23.63103,46.76819]},"properties":{"distance":"0","time":"0"}},{"type":"Feature","name":"Stop","Shape":"111","geometry":{"type":"Point","coordinates":[23.59993,46.76755]},"properties":{"distance":"3196.925","time":"509.4159"}}]}